GSAT0233 (GALILEO 33)   
1 67160U 25302A   26129.51737545  .00000052  00000+0  00000+0 0  9994
2 67160  54.3112 103.2321 0002015 243.6096 300.2883  1.70474487  2466
GSAT0234 (GALILEO 34)   
1 67162U 25302C   26130.68115196  .00000057  00000+0  00000+0 0  9993
2 67162  54.3133 103.1981 0003738 295.7903  62.4544  1.70474455  2534
